NORAD_CAT_ID,OBJECT_NAME,OBJECT_TYPE,EPOCH,MEAN_MOTION,ECCENTRICITY,INCLINATION,RA_OF_ASC_NODE,ARG_OF_PERICENTER,MEAN_ANOMALY,BSTAR,MEAN_MOTION_DOT,MEAN_MOTION_DDOT,TLE_LINE0,TLE_LINE1,TLE_LINE2,SEMIMAJOR_AXIS,PERIOD,APOGEE,PERIGEE,DECAYED
53970.0,STARLINK-4567,PAYLOAD,2024-03-15 19:55:38,15.08842149,0.0001507,53.2121,228.688,86.8403,273.2762,0.00011004,1.464e-05,0.0,0 STARLINK-4567,1 53970U 22125G   24075.83030580  .00001464  00000-0  11004-3 0  9995,2 53970  53.2121 228.6880 0001507  86.8403 273.2762 15.08842149 80128,6917.874,95.437,540.781,538.696,0.0
53970.0,STARLINK-4567,PAYLOAD,2024-03-16 13:24:53,15.08837411,0.0001622,53.2126,225.4132,101.1874,258.93,5.1735e-05,5.35e-06,0.0,0 STARLINK-4567,1 53970U 22125G   24076.55894888  .00000535  00000-0  51735-4 0  9998,2 53970  53.2126 225.4132 0001622 101.1874 258.9300 15.08837411 80235,6917.888,95.438,540.875,538.631,0.0
53970.0,STARLINK-4567,PAYLOAD,2024-03-16 19:46:25,15.08840435,0.0001594,53.2159,224.2227,116.4644,243.6511,9.0917e-05,1.159e-05,0.0,0 STARLINK-4567,1 53970U 22125G   24076.82390691  .00001159  00000-0  90917-4 0  9999,2 53970  53.2159 224.2227 0001594 116.4644 243.6511 15.08840435 80331,6917.879,95.438,540.847,538.641,0.0
53970.0,STARLINK-4567,PAYLOAD,2024-03-17 14:51:03,15.08837662,0.000162,53.2154,220.6565,91.689,268.4288,0.00011717,1.577e-05,0.0,0 STARLINK-4567,1 53970U 22125G   24077.61879126  .00001577  00000-0  11717-3 0  9996,2 53970  53.2154 220.6565 0001620  91.6890 268.4288 15.08837662 80398,6917.888,95.438,540.873,538.632,0.0
53970.0,STARLINK-4567,PAYLOAD,2024-03-17 16:26:26,15.08840758,0.0001604,53.2152,220.3569,100.3815,259.7358,0.00014645,2.044e-05,0.0,0 STARLINK-4567,1 53970U 22125G   24077.68502919  .00002044  00000-0  14645-3 0  9999,2 53970  53.2152 220.3569 0001604 100.3815 259.7358 15.08840758 80407,6917.878,95.438,540.853,538.633,0.0
53970.0,STARLINK-4567,PAYLOAD,2024-03-18 17:52:36,15.08840425,0.0001384,53.2155,215.6021,82.4984,277.6165,1.7806e-05,-5e-08,0.0,0 STARLINK-4567,1 53970U 22125G   24078.74487069 -.00000005  00000-0  17806-4 0  9994,2 53970  53.2155 215.6021 0001384  82.4984 277.6165 15.08840425 80622,6917.879,95.438,540.702,538.787,0.0
53970.0,STARLINK-4567,PAYLOAD,2024-03-19 01:49:32,15.08839213,0.0001493,53.216,214.1159,71.8398,288.2757,-1.3352e-05,-5e-06,0.0,0 STARLINK-4567,1 53970U 22125G   24079.07607203 -.00000500  00000-0 -13352-4 0  9998,2 53970  53.2160 214.1159 0001493  71.8398 288.2757 15.08839213 80613,6917.883,95.438,540.781,538.715,0.0
53970.0,STARLINK-4567,PAYLOAD,2024-03-20 14:23:25,15.08834486,0.0001787,53.2164,207.2723,61.9798,298.1375,4.818e-05,4.79e-06,0.0,0 STARLINK-4567,1 53970U 22125G   24080.59959929  .00000479  00000-0  48180-4 0  9992,2 53970  53.2164 207.2723 0001787  61.9798 298.1375 15.08834486 80845,6917.897,95.438,540.998,538.526,0.0
53970.0,STARLINK-4567,PAYLOAD,2024-03-20 15:58:48,15.08836055,0.0001648,53.2175,206.9768,66.9595,293.1571,7.6964e-05,9.37e-06,0.0,0 STARLINK-4567,1 53970U 22125G   24080.66583861  .00000937  00000-0  76964-4 0  9998,2 53970  53.2175 206.9768 0001648  66.9595 293.1571 15.08836055 80913,6917.892,95.438,540.898,538.617,0.0
53970.0,STARLINK-4567,PAYLOAD,2024-03-21 14:14:12,15.08833368,0.0001413,53.2155,202.8206,91.6623,268.4531,9.2421e-05,1.183e-05,0.0,0 STARLINK-4567,1 53970U 22125G   24081.59320397  .00001183  00000-0  92421-4 0  9994,2 53970  53.2155 202.8206 0001413  91.6623 268.4531 15.08833368 80993,6917.901,95.438,540.743,538.788,0.0
53970.0,STARLINK-4567,PAYLOAD,2024-03-22 12:29:35,15.08866069,0.0001466,53.2171,198.6583,87.0378,273.0782,0.00062461,9.674e-05,0.0,0 STARLINK-4567,1 53970U 22125G   24082.52055168  .00009674  00000-0  62461-3 0  9992,2 53970  53.2171 198.6583 0001466  87.0378 273.0782 15.08866069 81192,6917.801,95.436,540.68,538.652,0.0
53970.0,STARLINK-4567,PAYLOAD,2024-03-22 14:04:58,15.08872541,0.0001531,53.2159,198.3603,86.5514,273.5654,0.00092304,0.00014446,0.0,0 STARLINK-4567,1 53970U 22125G   24082.58679141  .00014446  00000-0  92304-3 0  9993,2 53970  53.2159 198.3603 0001531  86.5514 273.5654 15.08872541 81147,6917.781,95.435,540.705,538.587,0.0
53970.0,STARLINK-4567,PAYLOAD,2024-03-23 12:20:22,15.08847398,0.0001887,53.2159,194.1969,133.7125,226.4024,0.00034115,5.147e-05,0.0,0 STARLINK-4567,1 53970U 22125G   24083.51415325  .00005147  00000-0  34115-3 0  9993,2 53970  53.2159 194.1969 0001887 133.7125 226.4024 15.08847398 81345,6917.858,95.437,541.028,538.417,0.0
53970.0,STARLINK-4567,PAYLOAD,2024-03-23 13:55:46,15.08845157,0.0001838,53.2163,193.8996,134.3139,225.8004,0.00034837,5.261e-05,0.0,0 STARLINK-4567,1 53970U 22125G   24083.58039377  .00005261  00000-0  34837-3 0  9997,2 53970  53.2163 193.8996 0001838 134.3139 225.8004 15.08845157 81290,6917.865,95.437,541.001,538.458,0.0
53970.0,STARLINK-4567,PAYLOAD,2024-03-24 13:46:32,15.08887001,0.0001722,53.2173,189.4384,107.0918,253.0263,0.0022972,0.00036509,0.0,0 STARLINK-4567,1 53970U 22125G   24084.57398957  .00036509  00000-0  22972-2 0  9994,2 53970  53.2173 189.4384 0001722 107.0918 253.0263 15.08887001 81448,6917.737,95.435,540.793,538.41,0.0
53970.0,STARLINK-4567,PAYLOAD,2024-03-24 16:57:18,15.08904844,0.0001762,53.2175,188.8503,114.4112,245.7064,0.0028201,0.00044961,0.0,0 STARLINK-4567,1 53970U 22125G   24084.70646454  .00044961  00000-0  28201-2 0  9999,2 53970  53.2175 188.8503 0001762 114.4112 245.7064 15.08904844 81529,6917.682,95.433,540.766,538.328,0.0
53970.0,STARLINK-4567,PAYLOAD,2024-03-25 13:37:19,15.08776229,0.0001379,53.2171,184.9786,78.4168,281.6978,2.2351e-05,6.7e-07,0.0,0 STARLINK-4567,1 53970U 22125G   24085.56759052  .00000067  00000-0  22351-4 0  9994,2 53970  53.2171 184.9786 0001379  78.4168 281.6978 15.08776229 81650,6918.075,95.442,540.894,538.986,0.0
53970.0,STARLINK-4567,PAYLOAD,2024-03-26 13:28:10,15.08817175,0.0001294,53.2156,180.5179,78.0751,282.0386,0.0022436,0.00035577,0.0,0 STARLINK-4567,1 53970U 22125G   24086.56123010  .00035577  00000-0  22436-2 0  9990,2 53970  53.2156 180.5179 0001294  78.0751 282.0386 15.08817175 81802,6917.95,95.439,540.71,538.92,0.0
53970.0,STARLINK-4567,PAYLOAD,2024-03-27 13:18:56,15.08889541,0.0001352,53.2149,176.0571,73.555,286.559,0.001988,0.00031536,0.0,0 STARLINK-4567,1 53970U 22125G   24087.55481749  .00031536  00000-0  19880-2 0  9996,2 53970  53.2149 176.0571 0001352  73.5550 286.5590 15.08889541 81893,6917.729,95.434,540.529,538.659,0.0
53970.0,STARLINK-4567,PAYLOAD,2024-03-28 05:12:47,15.08871895,0.0002487,53.2147,173.0836,82.1653,277.9621,0.00093227,0.00014593,0.0,0 STARLINK-4567,1 53970U 22125G   24088.21721167  .00014593  00000-0  93227-3 0  9993,2 53970  53.2147 173.0836 0002487  82.1653 277.9621 15.08871895 82053,6917.783,95.436,541.368,537.927,0.0
53970.0,STARLINK-4567,PAYLOAD,2024-03-28 11:34:19,15.08861138,0.0001402,53.2146,171.8941,87.0749,273.0404,0.0014383,0.0002269,0.0,0 STARLINK-4567,1 53970U 22125G   24088.48216814  .00022690  00000-0  14383-2 0  9992,2 53970  53.2146 171.8941 0001402  87.0749 273.0404 15.08861138 82090,6917.816,95.436,540.651,538.711,0.0
53970.0,STARLINK-4567,PAYLOAD,2024-03-28 22:42:01,15.08863147,0.0001908,53.2139,169.8118,90.9897,269.1314,0.0013822,0.00021792,0.0,0 STARLINK-4567,1 53970U 22125G   24088.94584749  .00021792  00000-0  13822-2 0  9997,2 53970  53.2139 169.8118 0001908  90.9897 269.1314 15.08863147 82103,6917.81,95.436,540.995,538.355,0.0
53970.0,STARLINK-4567,PAYLOAD,2024-03-29 05:03:33,15.08847772,0.000155,53.2146,168.6216,111.0424,249.0734,0.00090326,0.0001412,0.0,0 STARLINK-4567,1 53970U 22125G   24089.21080489  .00014120  00000-0  90326-3 0  9992,2 53970  53.2146 168.6216 0001550 111.0424 249.0734 15.08847772 82201,6917.857,95.437,540.794,538.649,0.0
53970.0,STARLINK-4567,PAYLOAD,2024-03-29 11:25:05,15.08860161,0.0001476,53.2145,167.4326,100.5323,259.5836,0.0019627,0.00031104,0.0,0 STARLINK-4567,1 53970U 22125G   24089.47576361  .00031104  00000-0  19627-2 0  9994,2 53970  53.2145 167.4326 0001476 100.5323 259.5836 15.08860161 82180,6917.819,95.436,540.705,538.663,0.0
53970.0,STARLINK-4567,PAYLOAD,2024-03-30 04:54:20,15.08859242,0.000164,53.2145,164.1622,88.646,271.472,0.0017776,0.00028131,0.0,0 STARLINK-4567,1 53970U 22125G   24090.20440580  .00028131  00000-0  17776-2 0  9999,2 53970  53.2145 164.1622 0001640  88.6460 271.4720 15.08859242 82356,6917.822,95.436,540.821,538.552,0.0
53970.0,STARLINK-4567,PAYLOAD,2024-03-30 11:15:53,15.08850346,0.0001529,53.2155,162.9704,94.7543,265.3624,0.00057341,8.852e-05,0.0,0 STARLINK-4567,1 53970U 22125G   24090.46936465  .00008852  00000-0  57341-3 0  9990,2 53970  53.2155 162.9704 0001529  94.7543 265.3624 15.08850346 82395,6917.849,95.437,540.772,538.656,0.0
53970.0,STARLINK-4567,PAYLOAD,2024-03-30 22:23:35,15.08843605,0.0001468,53.214,160.8904,83.2666,276.8493,0.00040984,6.241e-05,0.0,0 STARLINK-4567,1 53970U 22125G   24090.93304633  .00006241  00000-0  40984-3 0  9993,2 53970  53.2140 160.8904 0001468  83.2666 276.8493 15.08843605 82402,6917.869,95.437,540.75,538.719,0.0
53970.0,STARLINK-4567,PAYLOAD,2024-03-31 04:45:07,15.08842086,0.0001586,53.215,159.7012,92.2135,267.9039,0.00024843,3.668e-05,0.0,0 STARLINK-4567,1 53970U 22125G   24091.19800749  .00003668  00000-0  24843-3 0  9997,2 53970  53.2150 159.7012 0001586  92.2135 267.9039 15.08842086 82502,6917.874,95.437,540.836,538.642,0.0
53970.0,STARLINK-4567,PAYLOAD,2024-03-31 11:06:40,15.0884756,0.0001593,53.2152,158.5118,94.8259,265.2916,0.00020517,2.979e-05,0.0,0 STARLINK-4567,1 53970U 22125G   24091.46296516  .00002979  00000-0  20517-3 0  9996,2 53970  53.2152 158.5118 0001593  94.8259 265.2916 15.08847560 82485,6917.857,95.437,540.824,538.62,0.0
53970.0,STARLINK-4567,PAYLOAD,2024-04-01 04:35:55,15.08838876,0.0001688,53.2153,155.242,85.5052,274.6133,0.00010598,1.399e-05,0.0,0 STARLINK-4567,1 53970U 22125G   24092.19160928  .00001399  00000-0  10598-3 0  9997,2 53970  53.2153 155.2420 0001688  85.5052 274.6133 15.08838876 82653,6917.884,95.438,540.917,538.581,0.0
